{
  "norad_id": 66917,
  "name": "HULIANWANG DIGUI-107",
  "history": [
    {
      "epoch": "2026-05-02T05:23:22.892928Z",
      "apogee_km": 1150.0038545925254,
      "perigee_km": 1148.6218148028738,
      "latitude_deg": 3.195733158821192e-05,
      "longitude_deg": 9.895764758204455,
      "height_km": 1150.2558838892915,
      "semi_major_axis_km": 7527.449834697699,
      "eccentricity": 9.18e-05,
      "inclination_deg": 50.0034,
      "raan_deg": 310.8868,
      "arg_perigee_deg": 129.2952,
      "mean_anomaly_deg": 230.8002,
      "mean_motion_rev_day": 13.29324341
    },
    {
      "epoch": "2026-05-03T17:28:33.148416Z",
      "apogee_km": 1150.0240654441095,
      "perigee_km": 1148.6013774467556,
      "latitude_deg": 3.4121607159898944e-06,
      "longitude_deg": -178.27170102575334,
      "height_km": 1150.3198967482094,
      "semi_major_axis_km": 7527.449721445432,
      "eccentricity": 9.45e-05,
      "inclination_deg": 50.0034,
      "raan_deg": 305.4941,
      "arg_perigee_deg": 134.8535,
      "mean_anomaly_deg": 225.2414,
      "mean_motion_rev_day": 13.29324371
    },
    {
      "epoch": "2026-05-04T20:32:25.846944Z",
      "apogee_km": 1150.022507098125,
      "perigee_km": 1148.6028300906291,
      "latitude_deg": 6.251696037366306e-05,
      "longitude_deg": 130.6027620274978,
      "height_km": 1150.3415827581396,
      "semi_major_axis_km": 7527.449668594377,
      "eccentricity": 9.43e-05,
      "inclination_deg": 50.0035,
      "raan_deg": 301.4496,
      "arg_perigee_deg": 137.5069,
      "mean_anomaly_deg": 222.5877,
      "mean_motion_rev_day": 13.29324385
    },
    {
      "epoch": "2026-05-05T18:11:31.994016Z",
      "apogee_km": 1150.0259838900447,
      "perigee_km": 1148.5987794872763,
      "latitude_deg": 3.244836037258473e-05,
      "longitude_deg": 161.70221665939556,
      "height_km": 1150.3724415729805,
      "semi_major_axis_km": 7527.44938168866,
      "eccentricity": 9.48e-05,
      "inclination_deg": 50.0035,
      "raan_deg": 298.2139,
      "arg_perigee_deg": 140.9905,
      "mean_anomaly_deg": 219.1036,
      "mean_motion_rev_day": 13.29324461
    },
    {
      "epoch": "2026-05-06T17:38:53.642976Z",
      "apogee_km": 1150.0285531440031,
      "perigee_km": 1148.5953268658259,
      "latitude_deg": 1.650013115391564e-05,
      "longitude_deg": 165.39329136000381,
      "height_km": 1150.3998741298128,
      "semi_major_axis_km": 7527.448940004914,
      "eccentricity": 9.52e-05,
      "inclination_deg": 50.0035,
      "raan_deg": 294.7085,
      "arg_perigee_deg": 144.3508,
      "mean_anomaly_deg": 215.7428,
      "mean_motion_rev_day": 13.29324578
    }
  ]
}